KUZGTU 1 (RS47S)        
1 57217U 23091AV  26162.67048980  .00011659  00000+0  40636-3 0  9999
2 57217  97.5072 227.0945 0012341 115.0054 245.2469 15.29734623163532
SONATE-2                
1 59112U 24043Q   26162.68083809  .00036244  00000+0  47794-3 0  9992
2 59112  97.5519 312.7414 0006785 214.2461 145.8357 15.58306667127037
MESAT1                  
1 60209U 24125G   26162.60005230  .00050616  00000+0  56470-3 0  9996
2 60209  97.2312  19.9579 0009060 224.7831 135.2697 15.62604296108693
OOV-CUBE (TUBSAT-30)    
1 60240U 24128F   26162.59923854  .00001977  00000+0  15980-3 0  9990
2 60240  61.9950 245.0577 0045327 132.4986 227.9949 15.02751187105272
COLIBRI-S (RS67S)       
1 61746U 24199M   26162.69521829  .00020966  00000+0  40919-3 0  9996
2 61746  97.3007  36.5008 0006354 305.7088  54.3570 15.47497977136568
HORS 3 (RS81S)          
1 61753U 24199U   26162.68327281  .00034115  00000+0  51645-3 0  9998
2 61753  97.2992  38.4163 0003904 312.3060  47.7862 15.54591666136707
HORS 4 (RS82S)          
1 61754U 24199V   26162.66024380  .00045725  00000+0  58311-3 0  9997
2 61754  97.2940  39.5591 0003009 296.4131  63.6817 15.59171194136785
ARCTICSAT 1 (RS74S)     
1 61762U 24199AD  26162.51282498  .01934965  23538-5  12655-2 0  9997
2 61762  97.2842  46.4180 0009493 212.9334 147.1363 16.17145326137213
SIT-2086                
1 61764U 24199AF  26162.59038330  .00034146  00000+0  55336-3 0  9999
2 61764  97.2948  38.8176 0004357 282.3912  77.6854 15.52701713133561
HYPERVIEW 1G (RS66S)    
1 61772U 24199AP  26162.59907788  .00121518  00000+0  83249-3 0  9994
2 61772  97.2896  42.0416 0002618 250.8791 109.2191 15.74379761133798
ALTAIR (RS65S)          
1 61779U 24199AW  26162.57807838  .00010705  00000+0  29803-3 0  9995
2 61779  97.3045  31.9666 0011635 333.7214  26.3439 15.36921924136256
ASRTU-1 (AO-123)        
1 61781U 24199AY  26162.62625165  .00007237  00000+0  21093-3 0  9994
2 61781  97.3015  31.3477 0012865 335.9422  24.1219 15.35596437133076
SAMSAT-IONOSPHERE (RS7*)
1 61784U 24199BB  26162.59796638  .00042844  00000+0  58945-3 0  9996
2 61784  97.2962  38.3559 0006048 306.0953  53.9742 15.57138226136695
RTU MIREA 1 (RS51S)     
1 61785U 24199BC  26162.63457607  .00053301  00000+0  64566-3 0  9998
2 61785  97.2953  39.1968 0005522 298.0744  61.9955 15.60483499133605
TEVEL2-4                
1 63213U 25052D   26162.70463612  .00017902  00000+0  53861-3 0  9999
2 63213  97.3917  59.0886 0004732 113.7416 246.4323 15.34420215 69273
TEVEL2-5                
1 63214U 25052E   26162.65930424  .00017637  00000+0  53362-3 0  9995
2 63214  97.3921  58.9918 0004616 115.2111 244.9611 15.34247244 69264
TEVEL2-6                
1 63215U 25052F   26162.67150742  .00017453  00000+0  52870-3 0  9994
2 63215  97.3921  58.9890 0004506 114.2026 245.9689 15.34210437 69266
TEVEL2-1                
1 63217U 25052H   26162.69862928  .00016389  00000+0  50495-3 0  9992
2 63217  97.3892  58.6467 0004481 124.0183 236.1485 15.33685523 69253
TEVEL2-3                
1 63218U 25052J   26162.69346801  .00016740  00000+0  51483-3 0  9999
2 63218  97.3895  58.6628 0004465 124.0241 236.1426 15.33739822 69250
TEVEL2-2                
1 63219U 25052K   26162.63372872  .00016607  00000+0  51153-3 0  9997
2 63219  97.3892  58.5842 0004438 124.7997 235.3663 15.33691849 69249
TEVEL2-9                
1 63237U 25052AD  26162.66933140  .00015595  00000+0  51070-3 0  9994
2 63237  97.3955  58.0067 0007180 145.2035 214.9678 15.31729289 69181
TEVEL2-7                
1 63238U 25052AE  26162.64384617  .00015266  00000+0  50453-3 0  9991
2 63238  97.3956  57.8996 0007384 146.6025 213.5683 15.31438085 69172
TEVEL2-8                
1 63239U 25052AF  26162.65204074  .00015443  00000+0  51057-3 0  9999
2 63239  97.3954  57.8849 0007385 147.5513 212.6184 15.31421974 69176
INNOSAT 16 (RS92S7)     
1 64878U 25155C   26162.62304753  .00005050  00000+0  20264-3 0  9994
2 64878  97.4555 129.7686 0009866 195.2389 164.8553 15.25397996 79829
GEOSCAN 6 (RS92S6)      
1 64879U 25155D   26162.62280503  .00009233  00000+0  31981-3 0  9996
2 64879  97.4547 131.1533 0007596 180.8724 179.2504 15.30047938 79910
GEOSCAN 1 (RS92S1)      
1 64880U 25155E   26162.62740248  .00009736  00000+0  33102-3 0  9990
2 64880  97.4543 131.3011 0007551 180.4484 179.6751 15.30634689 79925
239ALFEROV (RS61S)      
1 64881U 25155F   26162.60492969  .00013687  00000+0  43406-3 0  9991
2 64881  97.4544 131.8213 0007249 177.1686 182.9598 15.32791043 79956
GEOSCAN 2 (RS92S2)      
1 64890U 25155Q   26162.68743365  .00009844  00000+0  33189-3 0  9995
2 64890  97.4542 131.5117 0007421 166.3996 193.7446 15.30907356 79945
GEOSCAN 5 (RS92S5)      
1 64891U 25155R   26162.66038082  .00013645  00000+0  42854-3 0  9990
2 64891  97.4537 132.0126 0005953 180.1761 179.9480 15.33111316 79971
GEOSCAN 4 (RS92S4)      
1 64892U 25155S   26162.71038505  .00013590  00000+0  42480-3 0  9991
2 64892  97.4540 132.1098 0006001 180.1188 180.0053 15.33263675 79989
